{
    "links": {
        "self": "http://www.neowsapp.com/rest/v1/neo/3971141?api_key=iIulBulltgU6a56xZRHN4H3l9WmuAYTsLGpBGhQ2"
    },
    "id": "3971141",
    "neo_reference_id": "3971141",
    "name": "(2019 YO6)",
    "designation": "2019 YO6",
    "nasa_jpl_url": "http://ssd.jpl.nasa.gov/sbdb.cgi?sstr=3971141",
    "absolute_magnitude_h": 22.2,
    "estimated_diameter": {
        "kilometers": {
            "estimated_diameter_min": 0.096506147,
            "estimated_diameter_max": 0.2157943048
        },
        "meters": {
            "estimated_diameter_min": 96.5061469579,
            "estimated_diameter_max": 215.7943048444
        },
        "miles": {
            "estimated_diameter_min": 0.059966121,
            "estimated_diameter_max": 0.134088323
        },
        "feet": {
            "estimated_diameter_min": 316.6212271853,
            "estimated_diameter_max": 707.9865871058
        }
    },
    "is_potentially_hazardous_asteroid": false,
    "close_approach_data": [
        {
            "close_approach_date": "2020-01-02",
            "close_approach_date_full": "2020-Jan-02 10:02",
            "epoch_date_close_approach": 1577959320000,
            "relative_velocity": {
                "kilometers_per_second": "7.2173849781",
                "kilometers_per_hour": "25982.5859209826",
                "miles_per_hour": "16144.5684574017"
            },
            "miss_distance": {
                "astronomical": "0.3130667572",
                "lunar": "121.7829685508",
                "kilometers": "46834120.044927164",
                "miles": "29101372.7473323032"
            },
            "orbiting_body": "Earth"
        }
    ],
    "orbital_data": {
        "orbit_id": "9",
        "orbit_determination_date": "2020-09-11 07:46:19",
        "first_observation_date": "2019-12-30",
        "last_observation_date": "2020-02-03",
        "data_arc_in_days": 35,
        "observations_used": 45,
        "orbit_uncertainty": "7",
        "minimum_orbit_intersection": ".282534",
        "jupiter_tisserand_invariant": "3.476",
        "epoch_osculation": "2459000.5",
        "eccentricity": ".4590047331648463",
        "semi_major_axis": "2.220441054524264",
        "inclination": "12.53974188452127",
        "ascending_node_longitude": "145.7090128293902",
        "orbital_period": "1208.529621831239",
        "perihelion_distance": "1.201248100784084",
        "perihelion_argument": "301.7258034864127",
        "aphelion_distance": "3.239634008264443",
        "perihelion_time": "2458843.592635935770",
        "mean_anomaly": "46.73998058693073",
        "mean_motion": ".2978826447418854",
        "equinox": "J2000",
        "orbit_class": {
            "orbit_class_type": "AMO",
            "orbit_class_description": "Near-Earth asteroid orbits similar to that of 1221 Amor",
            "orbit_class_range": "1.017 AU < q (perihelion) < 1.3 AU"
        }
    },
    "is_sentry_object": false
}